EOSSAT-1                
1 55053U 23001AW  26068.73619225  .00007695  00000+0  24844-3 0  9992
2 55053  97.3357 130.2294 0011263 110.3168 249.9285 15.32339828176689
STARLINK-31114          
1 58766U 24011B   26068.26656756 -.00000628  00000+0 -90847-5 0  9995
2 58766  53.1615  13.6666 0001084  87.3657 272.7468 15.30192842120231
